satname,norad_id,inclination_deg,eccentricity,mean_motion_rev_per_day,perigee_km,apogee_km,l1,l2
STARLINK-1255,45399,53.0544,0.0001227,15.06401751,546.3564517710838,548.0559309902483,1 45399U 20019AR  25251.36244846  .00001616  00000+0  12737-3 0  9990,2 45399  53.0544 235.1197 0001227  88.3050 271.8080 15.06401751302479
STARLINK-1259,45403,53.0501,0.0010931,15.77706171,329.6012145680279,344.281719112234,1 45403U 20019AV  25251.58337963  .00113762  00000+0  65814-3 0  9993,2 45403  53.0501 204.4794 0010931  39.5733 204.1543 15.77706171  5923
STARLINK-1260,45404,53.0535,0.000137,15.06397783,546.2695790489797,548.1671264156284,1 45404U 20019AW  25251.26293128  .00001245  00000+0  10245-3 0  9993,2 45404  53.0535 235.5672 0001370  90.3025 269.8121 15.06397783302362
STARLINK-1263,45405,53.0533,0.0001204,15.06408877,546.3505426547017,548.0181600361057,1 45405U 20019AX  25251.38087658  .00003716  00000+0  26817-3 0  9993,2 45405  53.0533 235.0358 0001204  80.7968 279.3158 15.06408877302387
STARLINK-1265,45406,53.0549,0.0001422,15.06395719,546.2398921870736,548.2094650484723,1 45406U 20019AY  25251.25556374  .00000152  00000+0  29134-4 0  9993,2 45406  53.0549 235.5981 0001422  89.9997 270.1155 15.06395719302361
STARLINK-1278,45408,53.0544,0.0001297,15.06413483,546.2720224450513,548.0684471417571,1 45408U 20019BA  25251.34860726  .00002545  00000+0  18964-3 0  9990,2 45408  53.0544 265.1823 0001297  86.6975 273.4163 15.06413483301961
STARLINK-1296,45412,53.0542,0.0001479,15.06391134,546.2144680139872,548.2629941552414,1 45412U 20019BE  25251.32560002  .00000305  00000+0  39376-4 0  9990,2 45412  53.0542 235.2840 0001479  85.9408 274.1750 15.06391134302370
STARLINK-1298,45413,53.051,0.0008631,15.39998053,440.2250578890744,452.00508181204987,1 45413U 20019BF  25251.17541202  .00112510  00000+0  27440-2 0  9994,2 45413  53.0510 227.0222 0008631  39.7155 320.4479 15.39998053302576
STARLINK-1309,45414,53.0541,0.0001246,15.06401679,546.3435142607359,548.0693098390184,1 45414U 20019BG  25251.34033082  .00000110  00000+0  26290-4 0  9992,2 45414  53.0541 235.2181 0001246  86.0778 274.0354 15.06401679302367
STARLINK-1316,45415,53.0539,0.0001454,15.06402233,546.1977694381094,548.2116588085764,1 45415U 20019BH  25251.36612775  .00000817  00000+0  73744-4 0  9997,2 45415  53.0539 235.0999 0001454  87.1917 272.9239 15.06402233302409
STARLINK-1318,45416,53.0549,0.0001388,15.54591303,402.39965224047046,404.28219051144515,1 45416U 20019BJ  25251.61170414  .00037571  00000+0  56324-3 0  9996,2 45416  53.0549 220.7537 0001388  97.3178 262.7990 15.54591303302612
STARLINK-1286,45417,53.0533,0.0001093,15.06402338,546.4474525000996,547.9613321284596,1 45417U 20019BK  25251.33758371  .00000772  00000+0  70684-4 0  9999,2 45417  53.0533 265.2336 0001093  93.4682 266.6432 15.06402338302235
STARLINK-1308,45419,53.0543,0.000126,15.06404313,546.3257469932578,548.070931498748,1 45419U 20019BM  25251.33387854  .00000766  00000+0  70311-4 0  9995,2 45419  53.0543 265.2500 0001260  86.3827 273.7307 15.06404313301985
STARLINK-1329,45531,53.0546,0.0001301,15.06401508,546.3059488932322,548.1079233854161,1 45531U 20025A   25251.16985745  .00001674  00000+0  13124-3 0  9998,2 45531  53.0546 205.9831 0001301  90.8459 269.2679 15.06401508297583
STARLINK-1338,45532,53.0539,0.0001728,15.06401092,546.0115114650953,548.4049107700575,1 45532U 20025B   25251.31360212  .00001381  00000+0  11159-3 0  9993,2 45532  53.0539 205.3348 0001728 123.0679 237.0476 15.06401092297608
STARLINK-1350,45535,53.0761,0.0003047,15.30766863,471.4353401974631,475.61074182645734,1 45535U 20025E   25251.16715509  .00011870  00000+0  40513-3 0  9992,2 45535  53.0761 166.8436 0003047  93.1898 266.9450 15.30766863298154
STARLINK-1362,45538,53.0544,0.0001457,15.063999,546.2028410943449,548.2208877534385,1 45538U 20025H   25251.27946098  .00001379  00000+0  11147-3 0  9990,2 45538  53.0544 205.2084 0001457  86.5140 273.6016 15.06399900297601
STARLINK-1368,45540,53.053,0.0001416,15.06398803,546.2345966980238,548.1958564485903,1 45540U 20025K   25251.28412594  .00001072  00000+0  90855-4 0  9997,2 45540  53.0530 205.4687 0001416  86.2790 273.8361 15.06398803297597
STARLINK-1371,45542,53.0548,0.0001299,15.06382636,546.3651669178234,548.1643862993851,1 45542U 20025M   25251.58639285 -.00000565  00000+0 -19073-4 0  9991,2 45542  53.0548 204.1149 0001299  90.1781 269.9357 15.06382636297644
STARLINK-1372,45543,53.0544,0.0001504,15.06375418,546.245315497913,548.3284830068087,1 45543U 20025N   25251.15882795 -.00001553  00000+0 -85450-4 0  9991,2 45543  53.0544 206.0302 0001504  94.3644 265.7516 15.06375418296679
STARLINK-1373,45544,53.053,0.0001322,15.06397822,546.302701240802,548.1337651644599,1 45544U 20025P   25251.57531001  .00000814  00000+0  73528-4 0  9999,2 45544  53.0530 204.1653 0001322  88.5014 271.6126 15.06397822297641
STARLINK-1294,45551,53.0523,0.0005907,15.48254598,417.81509442445986,425.8485776073294,1 45551U 20025W   25251.58337963  .00165761  00000+0  30340-2 0  9995,2 45551  53.0523 155.3634 0005907 140.5556 215.5721 15.48254598  5856
STARLINK-1323,45553,53.0421,0.0008898,15.84448933,311.9187438967456,323.83497015671037,1 45553U 20025Y   25251.58337963  .00262510  00000+0  10915-2 0  9993,2 45553  53.0421 141.6616 0008898  62.9424  72.4676 15.84448933  5886
STARLINK-1325,45554,53.0614,0.0001197,15.45061432,430.3824950017315,432.0126496983521,1 45554U 20025Z   25251.41943146  .00051299  00000+0  10704-2 0  9998,2 45554  53.0614 147.5545 0001197 146.7920 213.3161 15.45061432298436
STARLINK-1327,45555,53.0556,0.0001594,15.0640535,546.0912630608827,548.2990589538122,1 45555U 20025AA  25251.54766597  .00000827  00000+0  74432-4 0  9997,2 45555  53.0556 184.2839 0001594  94.2501 265.8671 15.06405350297917
STARLINK-1336,45557,53.0404,0.001062,15.78873323,326.50383144082116,340.75962822298334,1 45557U 20025AC  25251.58337963  .00199446  00000+0  10817-2 0  9995,2 45557  53.0404 146.7143 0010620  73.0470  52.1273 15.78873323  5978
STARLINK-1342,45558,53.0469,0.0008289,15.87352574,304.16508798273753,315.252198490095,1 45558U 20025AD  25251.58337963  .00310441  00000+0  11153-2 0  9990,2 45558  53.0469 144.1646 0008289  72.7212  40.5517 15.87352574  5789
STARLINK-1355,45563,53.0321,0.0005832,15.99608742,271.6230466199195,279.383852840484,1 45563U 20025AJ  25251.58337963  .00425274  88132-4  83244-3 0  9995,2 45563  53.0321  74.1131 0005832 276.2181 248.0848 15.99608742  5911
STARLINK-1356,45564,53.0552,0.0001293,15.0639913,546.3187764509485,548.1096722775683,1 45564U 20025AK  25251.55136540  .00002654  00000+0  19698-3 0  9999,2 45564  53.0552 184.2670 0001293  88.4570 271.6567 15.06399130297910
STARLINK-1357,45565,53.0658,0.0008181,15.24089513,487.8991087941822,499.14251530626007,1 45565U 20025AL  25251.07419227  .00056556  00000+0  22930-2 0  9995,2 45565  53.0658 179.3884 0008181  69.9389 290.2488 15.24089513297948
STARLINK-1361,45567,53.054,0.0001448,15.06401697,546.2035671644971,548.2091466006495,1 45567U 20025AN  25251.10535648  .00001179  00000+0  98018-4 0  9990,2 45567  53.0540 186.2738 0001448  84.9974 275.1181 15.06401697297854
STARLINK-1363,45568,53.0529,0.000156,15.06403631,546.120076829593,548.2807821075876,1 45568U 20025AP  25251.51821626  .00000753  00000+0  69440-4 0  9994,2 45568  53.0529 184.6606 0001560  87.8274 272.2894 15.06403631297903
STARLINK-1366,45569,53.0544,0.0001319,15.06405799,546.2803337649748,548.1072360260296,1 45569U 20025AQ  25251.50712266  .00000405  00000+0  46070-4 0  9991,2 45569  53.0544 184.4639 0001319  93.9768 266.1372 15.06405799297903
STARLINK-1376,45570,53.0545,0.0001488,15.06411455,546.1459635941783,548.206936876968,1 45570U 20025AR  25251.23436321  .00002894  00000+0  21303-3 0  9993,2 45570  53.0545 185.6924 0001488  85.3701 274.7458 15.06411455297866
STARLINK-1320,45572,53.0611,0.000843,15.33815537,458.67264580622395,470.2092322113922,1 45572U 20025AT  25250.98062694  .00046405  00000+0  14004-2 0  9999,2 45572  53.0611 142.0739 0008430 123.6141 236.5665 15.33815537298474
STARLINK-1321,45573,53.0511,0.0001157,15.06405809,546.392493478872,547.9950150154054,1 45573U 20025AU  25251.48592801  .00005214  00000+0  36861-3 0  9993,2 45573  53.0511 174.5591 0001157  74.5964 285.5153 15.06405809297748
STARLINK-1328,45576,53.0558,7.19e-05,15.51660846,411.388338706638,412.3647426537882,1 45576U 20025AX  25251.58337963  .00121975  00000+0  19937-2 0  9990,2 45576  53.0558 170.3375 0000719  97.9921 290.1939 15.51660846  5791
STARLINK-1331,45578,53.0545,0.0001499,15.06420956,546.1092314397538,548.1854316823556,1 45578U 20025AZ  25251.19842828  .00007434  00000+0  51712-3 0  9991,2 45578  53.0545 175.8525 0001499  89.0515 271.0645 15.06420956298010
STARLINK-1333,45580,53.0544,0.0001764,15.06394847,546.0057169145812,548.4489854576796,1 45580U 20025BB  25251.53661729  .00001301  00000+0  10627-3 0  9998,2 45580  53.0544 184.3371 0001764  85.4157 274.7033 15.06394847297911
STARLINK-1335,45581,53.0542,0.0001612,15.06414493,546.0507803095152,548.2834983640369,1 45581U 20025BC  25251.20947996  .00005528  00000+0  38957-3 0  9997,2 45581  53.0542 175.8036 0001612 120.5414 239.5735 15.06414493298001
STARLINK-1337,45582,53.054,0.0001541,15.06396491,546.1551146687016,548.2895104088275,1 45582U 20025BD  25251.49699338  .00002952  00000+0  21700-3 0  9999,2 45582  53.0540 174.5139 0001541  87.7122 272.4043 15.06396491298040
STARLINK-1347,45586,53.0577,0.0007488,15.23467555,490.2440304355978,500.5378258607916,1 45586U 20025BH  25251.50595553  .00052794  00000+0  21827-2 0  9997,2 45586  53.0577 167.6508 0007488  79.1902 280.9938 15.23467555298130
STARLINK-1349,45587,53.0432,8.88e-05,16.06110478,256.94555296896215,258.1240482807543,1 45587U 20025BJ  25251.03534262  .00526550  14418-3  70082-3 0  9992,2 45587  53.0432 127.6315 0000888 126.7021 233.4092 16.06110478298664
